{"epoch":1784710044,"count":18256,"objects":[{"id":"59625","name":"LEGION 1","type":"PAYLOAD","l1":"1 59625U 24081A   26202.53199271  .00002682  00000-0  13961-3 0  9992","l2":"2 59625  97.5002 280.0250 0007892 243.1889 116.8537 15.16871034122743"},{"id":"59626","name":"LEGION 2","type":"PAYLOAD","l1":"1 59626U 24081B   26202.62843835  .00003190  00000-0  16535-3 0  9990","l2":"2 59626  97.5003 280.2171 0010738 208.9250 151.1389 15.16851480122765"},{"id":"60452","name":"LEGION 3","type":"PAYLOAD","l1":"1 60452U 24146A   26202.40018411  .00001874  00000-0  11041-3 0  9995","l2":"2 60452  45.0013 207.1286 0007580   8.3660 351.7343 15.15678198107219"},{"id":"60453","name":"LEGION 4","type":"PAYLOAD","l1":"1 60453U 24146B   26202.59752048  .00003343  00000-0  18598-3 0  9994","l2":"2 60453  45.0021 297.9380 0009436 153.0894 207.0476 15.15711740106096"},{"id":"62900","name":"LEGION 5","type":"PAYLOAD","l1":"1 62900U 25025A   26202.46569184  .00002835  00000-0  15974-3 0  9993","l2":"2 62900  45.0013 117.6020 0007726 321.3726  38.6599 15.15729499 79698"},{"id":"62901","name":"LEGION 6","type":"PAYLOAD","l1":"1 62901U 25025B   26202.53077384  .00003066  00000-0  17162-3 0  9996","l2":"2 62901  45.0022  26.4002 0010595 308.7615  51.2316 15.15719900 80843"}]}